FENGYUN 3D              
1 43010U 17072A   26182.94705066 -.00000310  00000+0 -12488-3 0  9992
2 43010  99.0131 157.6365 0002160  38.6164 321.5165 14.19741085447089
NOAA 20 (JPSS-1)        
1 43013U 17073A   26182.87394754  .00000069  00000+0  53704-4 0  9992
2 43013  98.7773 122.2061 0000856 132.7225 227.4023 14.19514403446555
GOES 17                 
1 43226U 18022A   26182.92328278 -.00000173  00000+0  00000+0 0  9990
2 43226   0.9725  85.4803 0000737  39.6239  37.7514  1.00271957 30573
SENTINEL-3B             
1 43437U 18039A   26182.91698316  .00000127  00000+0  70487-4 0  9993
2 43437  98.6244 250.2376 0000825 117.4742 242.6522 14.26738948426223
FENGYUN 2H              
1 43491U 18050A   26182.95673178 -.00000120  00000+0  00000+0 0  9992
2 43491   3.0678  78.9082 0001768 121.3970 143.4229  1.00269567 29581
METOP-C                 
1 43689U 18087A   26182.91976965  .00000106  00000+0  68302-4 0  9994
2 43689  98.6638 242.2537 0002148 110.5867 249.5541 14.21516013396923
GEO-KOMPSAT-2A          
1 43823U 18100A   26182.46742068 -.00000334  00000+0  00000+0 0  9995
2 43823   0.0517 181.9048 0002589 289.1691 104.9700  1.00255173 27774
METEOR-M2 2             
1 44387U 19038A   26182.99634551  .00000073  00000+0  51374-4 0  9991
2 44387  98.9146 170.5004 0001421  26.5437 333.5813 14.24370098363407
ARKTIKA-M 1             
1 47719U 21016A   26180.95192977 -.00000281  00000+0  00000+0 0  9994
2 47719  63.2520  55.7907 7292817 269.9910  14.5481  2.00617895 39040
FENGYUN 3E              
1 49008U 21062A   26182.99974675 -.00000098  00000+0 -25470-4 0  9997
2 49008  98.7489 186.2424 0002684  62.1004 298.0444 14.19904785258686
GOES 18                 
1 51850U 22021A   26182.77130932  .00000107  00000+0  00000+0 0  9993
2 51850   0.0058 307.6791 0000560 188.3702 284.4375  1.00271354  6739
NOAA 21 (JPSS-2)        
1 54234U 22150A   26182.90646019  .00000056  00000+0  47273-4 0  9999
2 54234  98.7061 121.4484 0002419 128.2993 231.8401 14.19539128188633
METEOSAT-12 (MTG-I1)    
1 54743U 22170C   26182.86965214  .00000004  00000+0  00000+0 0  9997
2 54743   0.7542  25.2200 0003637  74.1385 133.3777  1.00276205 13122
TIANMU-1 03             
1 55973U 23039A   26182.92275322  .00018646  00000+0  36187-3 0  9999
2 55973  97.5233 357.4728 0003691  62.2717 297.8907 15.47704286183110
TIANMU-1 04             
1 55974U 23039B   26182.97110431  .00019355  00000+0  36759-3 0  9997
2 55974  97.5172 356.6778 0004107  55.8685 304.2955 15.48320442183131
TIANMU-1 05             
1 55975U 23039C   26182.96889221  .00018079  00000+0  35184-3 0  9990
2 55975  97.5218 357.1300 0003760  79.0123 281.1550 15.47631079183100
TIANMU-1 06             
1 55976U 23039D   26182.97541865  .00018713  00000+0  35672-3 0  9998
2 55976  97.5224 357.7877 0003990  74.1923 285.9767 15.48219425183135
FENGYUN 3G              
1 56232U 23055A   26182.84150803  .00027050  00000+0  42634-3 0  9996
2 56232  49.9926 270.4808 0007315 357.5149   2.5781 15.53277986182285
METEOR-M2 3             
1 57166U 23091A   26182.99407257  .00000010  00000+0  23246-4 0  9993
2 57166  98.6075 237.6690 0004992 119.9286 240.2389 14.24048030156629
TIANMU-1 07             
1 57399U 23101A   26182.94743832  .00007918  00000+0  27527-3 0  9999
2 57399  97.2581 233.2775 0004303  91.7948 268.3786 15.29979642163907
TIANMU-1 08             
1 57400U 23101B   26182.91403934  .00007281  00000+0  25330-3 0  9998
2 57400  97.2570 233.0133 0005516  79.8725 280.3138 15.29983155163898
TIANMU-1 09             
1 57401U 23101C   26182.96253659  .00007960  00000+0  27635-3 0  9995
2 57401  97.2528 232.4690 0004897  94.2416 265.9384 15.30020488163909
TIANMU-1 10             
1 57402U 23101D   26182.93045100  .00007867  00000+0  27333-3 0  9994
2 57402  97.2607 233.5032 0006361  88.7079 271.4890 15.29993032163895
FENGYUN 3F              
1 57490U 23111A   26182.98331269  .00000053  00000+0  45228-4 0  9995
2 57490  98.6831 252.7161 0001494  83.1149 277.0197 14.19941542150964
ARKTIKA-M 2             
1 58584U 23198A   26180.72239164  .00000148  00000+0  00000+0 0  9995
2 58584  63.2199 152.9641 6905877 267.3845  18.7575  2.00610643 18573
TIANMU-1 11             
1 58645U 23205A   26182.99370545  .00006609  00000+0  25085-3 0  9994
2 58645  97.3437 204.3189 0007262 321.0282  39.0433 15.27147535139785
TIANMU-1 12             
1 58646U 23205B   26182.96465231  .00006530  00000+0  24873-3 0  9996
2 58646  97.3426 204.0425 0005334 299.2541  60.8165 15.27045575139769
TIANMU-1 13             
1 58647U 23205C   26182.99800747  .00006877  00000+0  26241-3 0  9990
2 58647  97.3453 204.3508 0004951 273.3058  86.7615 15.26968434139769
TIANMU-1 14             
1 58648U 23205D   26182.98278025  .00006860  00000+0  26141-3 0  9999
2 58648  97.3390 203.5060 0005760 280.4213  79.6376 15.27013262139761
TIANMU-1 19             
1 58660U 23208A   26182.92088538  .00009686  00000+0  31794-3 0  9997
2 58660  97.4522 299.2983 0003596 255.8781 104.2061 15.31796477139587
