OBJECT_NAME,OBJECT_ID,EPOCH,MEAN_MOTION,ECCENTRICITY,INCLINATION,RA_OF_ASC_NODE,ARG_OF_PERICENTER,MEAN_ANOMALY,EPHEMERIS_TYPE,CLASSIFICATION_TYPE,NORAD_CAT_ID,ELEMENT_SET_NO,REV_AT_EPOCH,BSTAR,MEAN_MOTION_DOT,MEAN_MOTION_DDOT
FENGYUN 3D,2017-072A,2026-07-01T22:43:45.177024,14.19741085,.00021602,99.0131,157.6365,38.6164,321.5165,0,U,43010,999,44708,-.12487996E-3,-.31E-5,0
NOAA 20 (JPSS-1),2017-073A,2026-07-01T20:58:29.067456,14.19514403,.0000856,98.7773,122.2061,132.7225,227.4023,0,U,43013,999,44655,.53704197E-4,.69E-6,0
GOES 17,2018-022A,2026-07-01T22:09:31.632192,1.00271957,.00007375,0.9725,85.4803,39.6239,37.7514,0,U,43226,999,3057,0,-.173E-5,0
SENTINEL-3B,2018-039A,2026-07-01T22:00:27.345024,14.26738948,.00008259,98.6244,250.2376,117.4742,242.6522,0,U,43437,999,42622,.70486517E-4,.127E-5,0
FENGYUN 2H,2018-050A,2026-07-01T22:57:41.625792,1.00269567,.00017681,3.0678,78.9082,121.3970,143.4229,0,U,43491,999,2958,0,-.12E-5,0
METOP-C,2018-087A,2026-07-01T22:04:28.097760,14.21516013,.00021481,98.6638,242.2537,110.5867,249.5541,0,U,43689,999,39692,.68302202E-4,.106E-5,0
GEO-KOMPSAT-2A,2018-100A,2026-07-01T11:13:05.146752,1.00255173,.00025893,0.0517,181.9048,289.1691,104.9700,0,U,43823,999,2777,0,-.334E-5,0
METEOR-M2 2,2019-038A,2026-07-01T23:54:44.252064,14.24370098,.00014214,98.9146,170.5004,26.5437,333.5813,0,U,44387,999,36340,.51374192E-4,.73E-6,0
ARKTIKA-M 1,2021-016A,2026-06-29T22:50:46.732128,2.00617895,.72928178,63.2520,55.7907,269.9910,14.5481,0,U,47719,999,3904,0,-.281E-5,0
FENGYUN 3E,2021-062A,2026-07-01T23:59:38.119200,14.19904785,.00026847,98.7489,186.2424,62.1004,298.0444,0,U,49008,999,25868,-.25469854E-4,-.98E-6,0
GOES 18,2022-021A,2026-07-01T18:30:41.125248,1.00271354,.00005606,0.0058,307.6791,188.3702,284.4375,0,U,51850,999,673,0,.107E-5,0
NOAA 21 (JPSS-2),2022-150A,2026-07-01T21:45:18.160416,14.19539128,.00024191,98.7061,121.4484,128.2993,231.8401,0,U,54234,999,18863,.4727325E-4,.56E-6,0
METEOSAT-12 (MTG-I1),2022-170C,2026-07-01T20:52:17.944896,1.00276205,.00036377,0.7542,25.2200,74.1385,133.3777,0,U,54743,999,1312,0,.4E-7,0
TIANMU-1 03,2023-039A,2026-07-01T22:08:45.878208,15.47704286,.0003691,97.5233,357.4728,62.2717,297.8907,0,U,55973,999,18311,.36187036E-3,.18646E-3,0
TIANMU-1 04,2023-039B,2026-07-01T23:18:23.412384,15.48320442,.00041075,97.5172,356.6778,55.8685,304.2955,0,U,55974,999,18313,.36758727E-3,.19355E-3,0
TIANMU-1 05,2023-039C,2026-07-01T23:15:12.286944,15.47631079,.00037607,97.5218,357.1300,79.0123,281.1550,0,U,55975,999,18310,.3518369E-3,.18079E-3,0
TIANMU-1 06,2023-039D,2026-07-01T23:24:36.171360,15.48219425,.00039908,97.5224,357.7877,74.1923,285.9767,0,U,55976,999,18313,.35672096E-3,.18713E-3,0
FENGYUN 3G,2023-055A,2026-07-01T20:11:46.293792,15.53277986,.00073155,49.9926,270.4808,357.5149,2.5781,0,U,56232,999,18228,.42633555E-3,.2705E-3,0
METEOR-M2 3,2023-091A,2026-07-01T23:51:27.870048,14.24048030,.00049921,98.6075,237.6690,119.9286,240.2389,0,U,57166,999,15662,.23245622E-4,.1E-6,0
TIANMU-1 07,2023-101A,2026-07-01T22:44:18.670848,15.29979642,.00043032,97.2581,233.2775,91.7948,268.3786,0,U,57399,999,16390,.27527418E-3,.7918E-4,0
TIANMU-1 08,2023-101B,2026-07-01T21:56:12.998976,15.29983155,.00055161,97.2570,233.0133,79.8725,280.3138,0,U,57400,999,16389,.25330032E-3,.7281E-4,0
TIANMU-1 09,2023-101C,2026-07-01T23:06:03.161376,15.30020488,.00048976,97.2528,232.4690,94.2416,265.9384,0,U,57401,999,16390,.27635415E-3,.796E-4,0
TIANMU-1 10,2023-101D,2026-07-01T22:19:50.966400,15.29993032,.0006361,97.2607,233.5032,88.7079,271.4890,0,U,57402,999,16389,.27333305E-3,.7867E-4,0
FENGYUN 3F,2023-111A,2026-07-01T23:35:58.216416,14.19941542,.00014946,98.6831,252.7161,83.1149,277.0197,0,U,57490,999,15096,.45228321E-4,.53E-6,0
ARKTIKA-M 2,2023-198A,2026-06-29T17:20:14.637696,2.00610643,.69058771,63.2199,152.9641,267.3845,18.7575,0,U,58584,999,1857,0,.148E-5,0
TIANMU-1 11,2023-205A,2026-07-01T23:50:56.150880,15.27147535,.00072622,97.3437,204.3189,321.0282,39.0433,0,U,58645,999,13978,.25085212E-3,.6609E-4,0
TIANMU-1 12,2023-205B,2026-07-01T23:09:05.959584,15.27045575,.00053341,97.3426,204.0425,299.2541,60.8165,0,U,58646,999,13976,.24873069E-3,.653E-4,0
TIANMU-1 13,2023-205C,2026-07-01T23:57:07.845408,15.26968434,.00049514,97.3453,204.3508,273.3058,86.7615,0,U,58647,999,13976,.26241403E-3,.6877E-4,0
TIANMU-1 14,2023-205D,2026-07-01T23:35:12.213600,15.27013262,.00057601,97.3390,203.5060,280.4213,79.6376,0,U,58648,999,13976,.26140951E-3,.686E-4,0
TIANMU-1 19,2023-208A,2026-07-01T22:06:04.496832,15.31796477,.00035964,97.4522,299.2983,255.8781,104.2061,0,U,58660,999,13958,.31794315E-3,.9686E-4,0
